{
  "type": "FeatureCollection",
  "name": "Bryce Canyon Shuttle Stops",
  "features": [
    {"type":"Feature","geometry":{"type":"Point","coordinates":[-112.1590,37.6734]},"properties":{"name":"Bryce Stop 1 · Shuttle Station","stop":"1","line":"Bryce Canyon Shuttle","access":"Primary park-and-ride in Bryce Canyon City","source":"https://www.nps.gov/brca/planyourvisit/shuttle.htm"}},
    {"type":"Feature","geometry":{"type":"Point","coordinates":[-112.1563660,37.6735579]},"properties":{"name":"Bryce Stop 2 · Old Bryce Town","stop":"2","line":"Bryce Canyon Shuttle","access":"Old Bryce Town shops and lodging area","source":"https://www.nps.gov/brca/planyourvisit/shuttle.htm"}},
    {"type":"Feature","geometry":{"type":"Point","coordinates":[-112.1573,37.6703]},"properties":{"name":"Bryce Stop 3 · Best Western Plus Grand Hotel","stop":"3","line":"Bryce Canyon Shuttle","access":"Bryce Canyon Grand Hotel","source":"https://www.nps.gov/brca/planyourvisit/shuttle.htm"}},
    {"type":"Feature","geometry":{"type":"Point","coordinates":[-112.1581,37.6735]},"properties":{"name":"Bryce Stop 4 · Best Western Plus Ruby’s Inn","stop":"4","line":"Bryce Canyon Shuttle","access":"Ruby’s Inn lodging complex","source":"https://www.nps.gov/brca/planyourvisit/shuttle.htm"}},
    {"type":"Feature","geometry":{"type":"Point","coordinates":[-112.1566,37.6785]},"properties":{"name":"Bryce Stops 5 & 15 · Ruby’s Campground","stop":"5 / 15","line":"Bryce Canyon Shuttle","access":"Ruby’s Inn campground; served on both legs of the loop","source":"https://www.nps.gov/brca/planyourvisit/shuttle.htm"}},
    {"type":"Feature","geometry":{"type":"Point","coordinates":[-112.1677,37.6285]},"properties":{"name":"Bryce Stops 6 & 14 · Visitor Center","stop":"6 / 14","line":"Bryce Canyon Shuttle","access":"Visitor Center; served on both legs of the loop","source":"https://www.nps.gov/brca/planyourvisit/shuttle.htm"}},
    {"type":"Feature","geometry":{"type":"Point","coordinates":[-112.1733,37.6213]},"properties":{"name":"Bryce Stops 7 & 10 · Sunset Campground","stop":"7 / 10","line":"Bryce Canyon Shuttle","access":"Sunset Campground area; served on both legs of the loop","source":"https://www.nps.gov/brca/planyourvisit/shuttle.htm"}},
    {"type":"Feature","geometry":{"type":"Point","coordinates":[-112.1577,37.6040]},"properties":{"name":"Bryce Stop 8 · Bryce Point","stop":"8","line":"Bryce Canyon Shuttle","access":"Bryce Point overlook","source":"https://www.nps.gov/brca/planyourvisit/shuttle.htm"}},
    {"type":"Feature","geometry":{"type":"Point","coordinates":[-112.1706,37.6154]},"properties":{"name":"Bryce Stop 9 · Inspiration Point","stop":"9","line":"Bryce Canyon Shuttle","access":"Inspiration Point overlooks","source":"https://www.nps.gov/brca/planyourvisit/shuttle.htm"}},
    {"type":"Feature","geometry":{"type":"Point","coordinates":[-112.1662,37.6227]},"properties":{"name":"Bryce Stop 11 · Sunset Point","stop":"11","line":"Bryce Canyon Shuttle","access":"Sunset Point and Navajo Loop trailhead","trip_note":"Key stop for the Queen’s Garden–Navajo combination.","source":"https://www.nps.gov/brca/planyourvisit/shuttle.htm"}},
    {"type":"Feature","geometry":{"type":"Point","coordinates":[-112.1653,37.6284]},"properties":{"name":"Bryce Stop 12 · Bryce Canyon Lodge","stop":"12","line":"Bryce Canyon Shuttle","access":"Bryce Canyon Lodge","source":"https://www.nps.gov/brca/planyourvisit/shuttle.htm"}},
    {"type":"Feature","geometry":{"type":"Point","coordinates":[-112.1649,37.6312]},"properties":{"name":"Bryce Stop 13 · Sunrise Point","stop":"13","line":"Bryce Canyon Shuttle","access":"Sunrise Point and Queen’s Garden trailhead","trip_note":"Start or finish the Queen’s Garden–Navajo combination here via the Rim Trail.","source":"https://www.nps.gov/brca/planyourvisit/shuttle.htm"}}
  ]
}
