{
  "type": "FeatureCollection",
  "name": "Springdale Shuttle Stops",
  "features": [
    {"type":"Feature","geometry":{"type":"Point","coordinates":[-112.9899757,37.1989595]},"properties":{"name":"Springdale Stop 1 · Zion Canyon Village","stop":"1","line":"Springdale Line","access":"Pedestrian entrance and transfer to Zion Canyon Visitor Center","trip_note":"Walk across the pedestrian bridge and transfer to the Zion Canyon Line.","source":"https://www.nps.gov/zion/planyourvisit/zion-canyon-shuttle-system.htm"}},
    {"type":"Feature","geometry":{"type":"Point","coordinates":[-112.9909608,37.1969422]},"properties":{"name":"Springdale Stop 2 · Cliffrose Lodge / Thai Sapa","stop":"2","line":"Springdale Line","access":"Cliffrose Lodge and Thai Sapa","walk_to_visitor_center":"About 5 minutes","source":"https://www.nps.gov/zion/planyourvisit/zion-canyon-shuttle-system.htm"}},
    {"type":"Feature","geometry":{"type":"Point","coordinates":[-112.9934350,37.1944850]},"properties":{"name":"Springdale Stop 3 · Whiptail Grill / Flanigan’s Inn","stop":"3","line":"Springdale Line","access":"Whiptail Grill and Flanigan’s Inn","walk_to_visitor_center":"About 10 minutes","source":"https://www.nps.gov/zion/planyourvisit/zion-canyon-shuttle-system.htm"}},
    {"type":"Feature","geometry":{"type":"Point","coordinates":[-112.9942442,37.1902453]},"properties":{"name":"Springdale Stop 4 · Desert Pearl Inn","stop":"4","line":"Springdale Line","access":"Desert Pearl Inn and Canyon Ranch Motel","walk_to_visitor_center":"About 15 minutes","source":"https://www.nps.gov/zion/planyourvisit/zion-canyon-shuttle-system.htm"}},
    {"type":"Feature","geometry":{"type":"Point","coordinates":[-112.9984845,37.1875957]},"properties":{"name":"Springdale Stop 5 · Bumbleberry Inn","stop":"5","line":"Springdale Line","access":"Bumbleberry Inn and Zion Pizza & Noodle Co.","walk_to_visitor_center":"About 20 minutes","source":"https://www.nps.gov/zion/planyourvisit/zion-canyon-shuttle-system.htm"}},
    {"type":"Feature","geometry":{"type":"Point","coordinates":[-113.0013992,37.1852299]},"properties":{"name":"Springdale Stop 6 · Hampton / Hyatt / SpringHill","stop":"6","line":"Springdale Line","access":"Hampton Inn, Hyatt Place, SpringHill Suites and Bit & Spur","walk_to_visitor_center":"About 30 minutes","source":"https://www.nps.gov/zion/planyourvisit/zion-canyon-shuttle-system.htm"}},
    {"type":"Feature","geometry":{"type":"Point","coordinates":[-113.0070230,37.1794552]},"properties":{"name":"Springdale Stop 7 · Montclair at Zion","stop":"7","line":"Springdale Line","access":"Montclair at Zion and Driftwood Lodge","trip_note":"Your booked Zion lodging stop.","walk_to_visitor_center":"About 35 minutes","source":"https://www.nps.gov/zion/planyourvisit/zion-canyon-shuttle-system.htm"}},
    {"type":"Feature","geometry":{"type":"Point","coordinates":[-113.0114642,37.1749152]},"properties":{"name":"Springdale Stop 8 · Park House Cafe","stop":"8","line":"Springdale Line","access":"Park House Cafe","walk_to_visitor_center":"About 45 minutes","source":"https://www.nps.gov/zion/planyourvisit/zion-canyon-shuttle-system.htm"}},
    {"type":"Feature","geometry":{"type":"Point","coordinates":[-113.0142723,37.1676825]},"properties":{"name":"Springdale Stop 9 · Hotel De Novo","stop":"9","line":"Springdale Line","access":"Hotel De Novo","walk_to_visitor_center":"About 55 minutes","source":"https://www.nps.gov/zion/planyourvisit/zion-canyon-shuttle-system.htm"}}
  ]
}
