{
  "type": "FeatureCollection",
  "name": "Zion Canyon Shuttle Stops",
  "features": [
    {"type":"Feature","geometry":{"type":"Point","coordinates":[-112.9869903,37.2001422]},"properties":{"name":"Zion Stop 1 · Visitor Center","stop":"1","line":"Zion Canyon Line","access":"Watchman Trail and Pa’rus Trail; transfer from Springdale Line","trip_note":"Board here for the canyon. Temple of Sinawava is roughly 45 minutes away.","source":"https://www.nps.gov/zion/planyourvisit/zion-canyon-shuttle-system.htm"}},
    {"type":"Feature","geometry":{"type":"Point","coordinates":[-112.9804457,37.2094192]},"properties":{"name":"Zion Stop 2 · Human History Museum","stop":"2","line":"Zion Canyon Line","access":"Zion Human History Museum and Pa’rus Trail access","source":"https://www.nps.gov/zion/planyourvisit/zion-canyon-shuttle-system.htm"}},
    {"type":"Feature","geometry":{"type":"Point","coordinates":[-112.97450,37.21690]},"properties":{"name":"Zion Stop 3 · Canyon Junction","stop":"3","line":"Zion Canyon Line","access":"Pa’rus Trail","trip_note":"Southbound pickup only while shuttles are operating.","source":"https://www.nps.gov/zion/planyourvisit/zion-canyon-shuttle-system.htm"}},
    {"type":"Feature","geometry":{"type":"Point","coordinates":[-112.95880,37.23750]},"properties":{"name":"Zion Stop 4 · Court of the Patriarchs","stop":"4","line":"Zion Canyon Line","access":"Court of the Patriarchs viewpoint","source":"https://www.nps.gov/zion/planyourvisit/zion-canyon-shuttle-system.htm"}},
    {"type":"Feature","geometry":{"type":"Point","coordinates":[-112.9570894,37.2498536]},"properties":{"name":"Zion Stop 5 · Zion Lodge","stop":"5","line":"Zion Canyon Line","access":"Emerald Pools, Grotto, Sand Bench Trail, food and restrooms","source":"https://www.nps.gov/zion/planyourvisit/zion-canyon-shuttle-system.htm"}},
    {"type":"Feature","geometry":{"type":"Point","coordinates":[-112.95120,37.25920]},"properties":{"name":"Zion Stop 6 · The Grotto","stop":"6","line":"Zion Canyon Line","access":"Kayenta Trail, West Rim Trail and Angels Landing route","source":"https://www.nps.gov/zion/planyourvisit/zion-canyon-shuttle-system.htm"}},
    {"type":"Feature","geometry":{"type":"Point","coordinates":[-112.93890,37.27080]},"properties":{"name":"Zion Stop 7 · Weeping Rock","stop":"7","line":"Zion Canyon Line","access":"Weeping Rock area; verify current trail access before relying on this stop","source":"https://www.nps.gov/zion/planyourvisit/zion-canyon-shuttle-system.htm"}},
    {"type":"Feature","geometry":{"type":"Point","coordinates":[-112.94020,37.27470]},"properties":{"name":"Zion Stop 8 · Big Bend","stop":"8","line":"Zion Canyon Line","access":"Scenic view of the Great White Throne and Angels Landing","trip_note":"Southbound stop.","source":"https://www.nps.gov/zion/planyourvisit/zion-canyon-shuttle-system.htm"}},
    {"type":"Feature","geometry":{"type":"Point","coordinates":[-112.9475010,37.2852753]},"properties":{"name":"Zion Stop 9 · Temple of Sinawava","stop":"9","line":"Zion Canyon Line","access":"Riverside Walk and bottom-up Narrows trailhead","trip_note":"Walk 1 paved mile on Riverside Walk, then enter the Virgin River. No permit is required for the bottom-up Narrows day hike.","source":"https://www.nps.gov/zion/planyourvisit/narrowsbottomup.htm"}}
  ]
}
